[{"OBJECT_NAME":"CSC-1","OBJECT_ID":"2023-155G","EPOCH":"2026-03-09T17:46:02.342496","MEAN_MOTION":15.1003596,"ECCENTRICITY":0.00075041,"INCLINATION":97.5446,"RA_OF_ASC_NODE":139.7305,"ARG_OF_PERICENTER":212.9992,"MEAN_ANOMALY":147.077,"EPHEMERIS_TYPE":0,"CLASSIFICATION_TYPE":"U","NORAD_CAT_ID":58022,"ELEMENT_SET_NO":999,"REV_AT_EPOCH":13272,"BSTAR":0.00054556609,"MEAN_MOTION_DOT":8.819e-5,"MEAN_MOTION_DDOT":0},{"OBJECT_NAME":"OBJECT D","OBJECT_ID":"2025-055D","EPOCH":"2026-03-09T22:34:08.531328","MEAN_MOTION":15.14873304,"ECCENTRICITY":0.00167206,"INCLINATION":97.6361,"RA_OF_ASC_NODE":208.0641,"ARG_OF_PERICENTER":122.8096,"MEAN_ANOMALY":237.4749,"EPHEMERIS_TYPE":0,"CLASSIFICATION_TYPE":"U","NORAD_CAT_ID":63294,"ELEMENT_SET_NO":999,"REV_AT_EPOCH":5397,"BSTAR":0.00070425888,"MEAN_MOTION_DOT":0.00013093,"MEAN_MOTION_DDOT":0}]
